{
  "type": "FeatureCollection",
  "features": [
    {
      "type": "Feature",
      "properties": {
        "norad_id": 30596,
        "name": "FENGYUN 1C DEB",
        "group": "fengyun-1c-debris",
        "lat": -55.30191880492004,
        "lon": 164.5396211689751,
        "alt_km": 612.8285807919883,
        "timestamp": "2025-12-25T11:37:44.712662+00:00",
        "meta_object_name": "FENGYUN 1C DEB",
        "meta_object_id": "1999-025AMB",
        "meta_epoch": "2025-12-24T23:04:02.211744",
        "meta_mean_motion": 14.34388847,
        "meta_eccentricity": 0.0247163,
        "meta_inclination": 98.4138,
        "meta_ra_of_asc_node": 356.3727,
        "meta_arg_of_pericenter": 252.5052,
        "meta_mean_anomaly": 163.1278,
        "meta_ephemeris_type": 0,
        "meta_classification_type": "U",
        "meta_norad_cat_id": 30596,
        "meta_element_set_no": 999,
        "meta_rev_at_epoch": 98736,
        "meta_bstar": 0.00025003,
        "meta_mean_motion_dot": 9.38e-06,
        "meta_mean_motion_ddot": 0,
        "tle_line1": "1 30596U 99025AMB 25358.96113671  .00000938  00000+0  25003-3 0  9997",
        "tle_line2": "2 30596  98.4138 356.3727 0247163 252.5052 163.1278 14.34388847987366"
      },
      "geometry": {
        "type": "Point",
        "coordinates": [
          164.5396211689751,
          -55.30191880492004
        ]
      }
    },
    {
      "type": "Feature",
      "properties": {
        "norad_id": 30597,
        "name": "FENGYUN 1C DEB",
        "group": "fengyun-1c-debris",
        "lat": -76.47398655521489,
        "lon": -21.45204179423473,
        "alt_km": 623.9761313403405,
        "timestamp": "2025-12-25T11:37:44.712674+00:00",
        "meta_object_name": "FENGYUN 1C DEB",
        "meta_object_id": "1999-025AMC",
        "meta_epoch": "2025-12-24T07:02:47.375232",
        "meta_mean_motion": 14.93450835,
        "meta_eccentricity": 0.00466134,
        "meta_inclination": 98.9402,
        "meta_ra_of_asc_node": 296.3208,
        "meta_arg_of_pericenter": 126.7159,
        "meta_mean_anomaly": 233.8353,
        "meta_ephemeris_type": 0,
        "meta_classification_type": "U",
        "meta_norad_cat_id": 30597,
        "meta_element_set_no": 999,
        "meta_rev_at_epoch": 98709,
        "meta_bstar": 0.0051085907,
        "meta_mean_motion_dot": 0.0005519,
        "meta_mean_motion_ddot": 0,
        "tle_line1": "1 30597U 99025AMC 25358.29360388  .00055190  00000+0  51086-2 0  9992",
        "tle_line2": "2 30597  98.9402 296.3208 0046613 126.7159 233.8353 14.93450835987091"
      },
      "geometry": {
        "type": "Point",
        "coordinates": [
          -21.45204179423473,
          -76.47398655521489
        ]
      }
    },
    {
      "type": "Feature",
      "properties": {
        "norad_id": 30599,
        "name": "FENGYUN 1C DEB",
        "group": "fengyun-1c-debris",
        "lat": -63.73300169921056,
        "lon": 172.9069394595446,
        "alt_km": 728.824161460635,
        "timestamp": "2025-12-25T11:37:44.712685+00:00",
        "meta_object_name": "FENGYUN 1C DEB",
        "meta_object_id": "1999-025AME",
        "meta_epoch": "2025-12-25T00:18:11.848032",
        "meta_mean_motion": 14.19748758,
        "meta_eccentricity": 0.0301745,
        "meta_inclination": 98.6023,
        "meta_ra_of_asc_node": 10.3096,
        "meta_arg_of_pericenter": 309.1848,
        "meta_mean_anomaly": 48.2878,
        "meta_ephemeris_type": 0,
        "meta_classification_type": "U",
        "meta_norad_cat_id": 30599,
        "meta_element_set_no": 999,
        "meta_rev_at_epoch": 97341,
        "meta_bstar": 0.00076126,
        "meta_mean_motion_dot": 2.493e-05,
        "meta_mean_motion_ddot": 0,
        "tle_line1": "1 30599U 99025AME 25359.01263713  .00002493  00000+0  76126-3 0  9990",
        "tle_line2": "2 30599  98.6023  10.3096 0301745 309.1848  48.2878 14.19748758973413"
      },
      "geometry": {
        "type": "Point",
        "coordinates": [
          172.9069394595446,
          -63.73300169921056
        ]
      }
    },
    {
      "type": "Feature",
      "properties": {
        "norad_id": 30600,
        "name": "FENGYUN 1C DEB",
        "group": "fengyun-1c-debris",
        "lat": 26.567112857925466,
        "lon": 127.58536003430974,
        "alt_km": 734.8842275928009,
        "timestamp": "2025-12-25T11:37:44.712695+00:00",
        "meta_object_name": "FENGYUN 1C DEB",
        "meta_object_id": "1999-025AMF",
        "meta_epoch": "2025-12-23T07:42:04.985856",
        "meta_mean_motion": 14.07647201,
        "meta_eccentricity": 0.03263971,
        "meta_inclination": 98.389,
        "meta_ra_of_asc_node": 301.3395,
        "meta_arg_of_pericenter": 217.0052,
        "meta_mean_anomaly": 140.8204,
        "meta_ephemeris_type": 0,
        "meta_classification_type": "U",
        "meta_norad_cat_id": 30600,
        "meta_element_set_no": 999,
        "meta_rev_at_epoch": 94581,
        "meta_bstar": 0.0024293418,
        "meta_mean_motion_dot": 6.648e-05,
        "meta_mean_motion_ddot": 0,
        "tle_line1": "1 30600U 99025AMF 25357.32089104  .00006648  00000+0  24293-2 0  9998",
        "tle_line2": "2 30600  98.3890 301.3395 0326397 217.0052 140.8204 14.07647201945817"
      },
      "geometry": {
        "type": "Point",
        "coordinates": [
          127.58536003430974,
          26.567112857925466
        ]
      }
    },
    {
      "type": "Feature",
      "properties": {
        "norad_id": 30602,
        "name": "FENGYUN 1C DEB",
        "group": "fengyun-1c-debris",
        "lat": 77.63420469947275,
        "lon": -131.29984327219094,
        "alt_km": 571.2850401201404,
        "timestamp": "2025-12-25T11:37:44.712705+00:00",
        "meta_object_name": "FENGYUN 1C DEB",
        "meta_object_id": "1999-025AMH",
        "meta_epoch": "2025-12-24T17:42:12.057984",
        "meta_mean_motion": 14.92947633,
        "meta_eccentricity": 0.00140869,
        "meta_inclination": 99.0331,
        "meta_ra_of_asc_node": 274.3645,
        "meta_arg_of_pericenter": 88.6277,
        "meta_mean_anomaly": 300.8333,
        "meta_ephemeris_type": 0,
        "meta_classification_type": "U",
        "meta_norad_cat_id": 30602,
        "meta_element_set_no": 999,
        "meta_rev_at_epoch": 97984,
        "meta_bstar": 0.007715388,
        "meta_mean_motion_dot": 0.00081082,
        "meta_mean_motion_ddot": 0,
        "tle_line1": "1 30602U 99025AMH 25358.73763956  .00081082  00000+0  77154-2 0  9999",
        "tle_line2": "2 30602  99.0331 274.3645 0014086  88.6277 300.8333 14.92947633979841"
      },
      "geometry": {
        "type": "Point",
        "coordinates": [
          -131.29984327219094,
          77.63420469947275
        ]
      }
    },
    {
      "type": "Feature",
      "properties": {
        "norad_id": 30603,
        "name": "FENGYUN 1C DEB",
        "group": "fengyun-1c-debris",
        "lat": 67.05166969903317,
        "lon": -138.48070612531262,
        "alt_km": 871.9690903274213,
        "timestamp": "2025-12-25T11:37:44.712715+00:00",
        "meta_object_name": "FENGYUN 1C DEB",
        "meta_object_id": "1999-025AMJ",
        "meta_epoch": "2025-12-25T00:50:38.109120",
        "meta_mean_motion": 13.8415953,
        "meta_eccentricity": 0.0183514,
        "meta_inclination": 98.4082,
        "meta_ra_of_asc_node": 20.6712,
        "meta_arg_of_pericenter": 171.836,
        "meta_mean_anomaly": 223.3185,
        "meta_ephemeris_type": 0,
        "meta_classification_type": "U",
        "meta_norad_cat_id": 30603,
        "meta_element_set_no": 999,
        "meta_rev_at_epoch": 95046,
        "meta_bstar": 0.0012338,
        "meta_mean_motion_dot": 1.53e-05,
        "meta_mean_motion_ddot": 0,
        "tle_line1": "1 30603U 99025AMJ 25359.03516330  .00001530  00000+0  12338-2 0  9999",
        "tle_line2": "2 30603  98.4082  20.6712 0183514 171.8360 223.3185 13.84159530950468"
      },
      "geometry": {
        "type": "Point",
        "coordinates": [
          -138.48070612531262,
          67.05166969903317
        ]
      }
    },
    {
      "type": "Feature",
      "properties": {
        "norad_id": 30604,
        "name": "FENGYUN 1C DEB",
        "group": "fengyun-1c-debris",
        "lat": 31.62983726229165,
        "lon": -141.01549532233446,
        "alt_km": 961.5074554213306,
        "timestamp": "2025-12-25T11:37:44.712728+00:00",
        "meta_object_name": "FENGYUN 1C DEB",
        "meta_object_id": "1999-025AMK",
        "meta_epoch": "2025-12-25T00:55:32.474784",
        "meta_mean_motion": 14.2363064,
        "meta_eccentricity": 0.0208974,
        "meta_inclination": 98.4011,
        "meta_ra_of_asc_node": 33.3358,
        "meta_arg_of_pericenter": 330.8132,
        "meta_mean_anomaly": 52.6621,
        "meta_ephemeris_type": 0,
        "meta_classification_type": "U",
        "meta_norad_cat_id": 30604,
        "meta_element_set_no": 999,
        "meta_rev_at_epoch": 98014,
        "meta_bstar": 0.00029695,
        "meta_mean_motion_dot": 8.01e-06,
        "meta_mean_motion_ddot": 0,
        "tle_line1": "1 30604U 99025AMK 25359.03857031  .00000801  00000+0  29695-3 0  9991",
        "tle_line2": "2 30604  98.4011  33.3358 0208974 330.8132  52.6621 14.23630640980146"
      },
      "geometry": {
        "type": "Point",
        "coordinates": [
          -141.01549532233446,
          31.62983726229165
        ]
      }
    }
  ]
}